start=new Date('2022-11-22T00:00:00.000Z').valueOf();
sats=[{"INCLINATION":"53.2166","ARG_OF_PERICENTER":"40.8337","MEAN_MOTION_DDOT":"0.0000000000000","CLASSIFICATION_TYPE":"U","OBJECT_NAME":"STARLINK-4649","SEMIMAJOR_AXIS":"6902.980","MEAN_MOTION_DOT":"-0.01159157","LAUNCH_DATE":"2022-09-19","RA_OF_ASC_NODE":"308.0780","NORAD_CAT_ID":"53831","BSTAR":"-0.06909600000000","ELEMENT_SET_NO":"999","OBJECT_ID":"2022-114P","APOAPSIS":"525.974","TLE_LINE1":"1 53831U 22114P   22325.91667824 -.01159157  00000-0 -69096-1 0  9999","RCS_SIZE":"LARGE","PERIOD":"95.129","ECCENTRICITY":"0.00016360","PERIAPSIS":"523.716","TIME_SYSTEM":"UTC","CENTER_NAME":"EARTH","REF_FRAME":"TEME","GP_ID":"218435501","FILE":"3666658","MEAN_ANOMALY":"270.8050","COUNTRY_CODE":"US","EPOCH":"2022-11-21T22:00:00.999936","REV_AT_EPOCH":"130","DECAY_DATE":null,"SITE":"AFETR","TLE_LINE2":"2 53831  53.2166 308.0780 0001636  40.8337 270.8050 15.13728017  1303","OBJECT_TYPE":"PAYLOAD","MEAN_ELEMENT_THEORY":"SGP4","EPHEMERIS_TYPE":"0","MEAN_MOTION":"15.13728017"},{"EPHEMERIS_TYPE":"0","MEAN_MOTION":"15.15537981","OBJECT_TYPE":"PAYLOAD","MEAN_ELEMENT_THEORY":"SGP4","REV_AT_EPOCH":"130","DECAY_DATE":null,"SITE":"AFETR","TLE_LINE2":"2 53832  53.2169 307.8718 0001646  40.9310  15.5050 15.15537981  1302","TIME_SYSTEM":"UTC","CENTER_NAME":"EARTH","GP_ID":"218436321","REF_FRAME":"TEME","FILE":"3666658","COUNTRY_CODE":"US","MEAN_ANOMALY":"15.5050","EPOCH":"2022-11-21T22:00:00.999936","OBJECT_ID":"2022-114Q","TLE_LINE1":"1 53832U 22114Q   22325.91667824 -.01171468  00000-0 -66387-1 0  9999","APOAPSIS":"520.483","ECCENTRICITY":"0.00016460","RCS_SIZE":"LARGE","PERIOD":"95.016","PERIAPSIS":"518.212","RA_OF_ASC_NODE":"307.8718","NORAD_CAT_ID":"53832","BSTAR":"-0.06638700000000","ELEMENT_SET_NO":"999","INCLINATION":"53.2169","MEAN_MOTION_DDOT":"0.0000000000000","ARG_OF_PERICENTER":"40.9310","CLASSIFICATION_TYPE":"U","OBJECT_NAME":"STARLINK-4747","SEMIMAJOR_AXIS":"6897.483","MEAN_MOTION_DOT":"-0.01171468","LAUNCH_DATE":"2022-09-19"},{"EPHEMERIS_TYPE":"0","MEAN_MOTION":"15.14630184","MEAN_ELEMENT_THEORY":"SGP4","OBJECT_TYPE":"PAYLOAD","SITE":"AFETR","DECAY_DATE":null,"REV_AT_EPOCH":"130","TLE_LINE2":"2 53833  53.2168 307.9734 0001372  48.9633 315.6740 15.14630184  1301","GP_ID":"218436157","REF_FRAME":"TEME","TIME_SYSTEM":"UTC","CENTER_NAME":"EARTH","COUNTRY_CODE":"US","MEAN_ANOMALY":"315.6740","EPOCH":"2022-11-21T22:00:00.999936","FILE":"3666658","PERIAPSIS":"521.157","RCS_SIZE":"LARGE","ECCENTRICITY":"0.00013720","PERIOD":"95.073","APOAPSIS":"523.050","TLE_LINE1":"1 53833U 22114R   22325.91667824 -.01161872  00000-0 -67525-1 0  9993","OBJECT_ID":"2022-114R","RA_OF_ASC_NODE":"307.9734","ELEMENT_SET_NO":"999","BSTAR":"-0.06752500000000","NORAD_CAT_ID":"53833","CLASSIFICATION_TYPE":"U","ARG_OF_PERICENTER":"48.9633","MEAN_MOTION_DDOT":"0.0000000000000","INCLINATION":"53.2168","LAUNCH_DATE":"2022-09-19","MEAN_MOTION_DOT":"-0.01161872","SEMIMAJOR_AXIS":"6900.239","OBJECT_NAME":"STARLINK-4771"},{"EPHEMERIS_TYPE":"0","MEAN_MOTION":"15.16134582","MEAN_ELEMENT_THEORY":"SGP4","OBJECT_TYPE":"PAYLOAD","SITE":"AFETR","DECAY_DATE":null,"REV_AT_EPOCH":"130","TLE_LINE2":"2 53834  53.2170 307.8051 0001808  41.5266  48.7864 15.16134582  1305","GP_ID":"218435337","REF_FRAME":"TEME","TIME_SYSTEM":"UTC","CENTER_NAME":"EARTH","MEAN_ANOMALY":"48.7864","COUNTRY_CODE":"US","EPOCH":"2022-11-21T22:00:00.999936","FILE":"3666658","PERIAPSIS":"516.291","RCS_SIZE":"MEDIUM","PERIOD":"94.978","ECCENTRICITY":"0.00018080","TLE_LINE1":"1 53834U 22114S   22325.91667824 -.01167941  00000-0 -65048-1 0  9995","APOAPSIS":"518.785","OBJECT_ID":"2022-114S","RA_OF_ASC_NODE":"307.8051","ELEMENT_SET_NO":"999","BSTAR":"-0.06504800000000","NORAD_CAT_ID":"53834","CLASSIFICATION_TYPE":"U","MEAN_MOTION_DDOT":"0.0000000000000","ARG_OF_PERICENTER":"41.5266","INCLINATION":"53.2170","LAUNCH_DATE":"2022-09-19","SEMIMAJOR_AXIS":"6895.673","MEAN_MOTION_DOT":"-0.01167941","OBJECT_NAME":"STARLINK-4737"},{"FILE":"3666658","EPOCH":"2022-11-21T22:00:00.999936","COUNTRY_CODE":"US","MEAN_ANOMALY":"2.4159","CENTER_NAME":"EARTH","TIME_SYSTEM":"UTC","REF_FRAME":"TEME","GP_ID":"218435833","OBJECT_ID":"2022-114T","APOAPSIS":"521.441","TLE_LINE1":"1 53835U 22114T   22325.91667824 -.01149954  00000-0 -65655-1 0  9994","RCS_SIZE":"LARGE","PERIOD":"95.036","ECCENTRICITY":"0.00016450","PERIAPSIS":"519.171","NORAD_CAT_ID":"53835","BSTAR":"-0.06565500000000","ELEMENT_SET_NO":"999","RA_OF_ASC_NODE":"307.9050","OBJECT_NAME":"STARLINK-4783","SEMIMAJOR_AXIS":"6898.441","MEAN_MOTION_DOT":"-0.01149954","LAUNCH_DATE":"2022-09-19","INCLINATION":"53.2168","MEAN_MOTION_DDOT":"0.0000000000000","ARG_OF_PERICENTER":"36.8917","CLASSIFICATION_TYPE":"U","MEAN_MOTION":"15.15222229","EPHEMERIS_TYPE":"0","OBJECT_TYPE":"PAYLOAD","MEAN_ELEMENT_THEORY":"SGP4","TLE_LINE2":"2 53835  53.2168 307.9050 0001645  36.8917   2.4159 15.15222229  1301","REV_AT_EPOCH":"130","DECAY_DATE":null,"SITE":"AFETR"},{"COUNTRY_CODE":"US","EPOCH":"2022-11-21T22:00:00.999936","MEAN_ANOMALY":"4.2682","FILE":"3666658","GP_ID":"218435997","REF_FRAME":"TEME","CENTER_NAME":"EARTH","TIME_SYSTEM":"UTC","RCS_SIZE":"LARGE","PERIOD":"92.032","ECCENTRICITY":"0.00010640","PERIAPSIS":"373.480","OBJECT_ID":"2022-114U","APOAPSIS":"374.917","TLE_LINE1":"1 53836U 22114U   22325.91667824 -.01154669  00000-0 -12939-1 0  9991","ELEMENT_SET_NO":"999","NORAD_CAT_ID":"53836","BSTAR":"-0.01293900000000","RA_OF_ASC_NODE":"302.7990","MEAN_MOTION_DOT":"-0.01154669","SEMIMAJOR_AXIS":"6752.334","LAUNCH_DATE":"2022-09-19","OBJECT_NAME":"STARLINK-4778","ARG_OF_PERICENTER":"64.6910","MEAN_MOTION_DDOT":"0.0000000000000","CLASSIFICATION_TYPE":"U","INCLINATION":"53.2164","MEAN_MOTION":"15.64666931","EPHEMERIS_TYPE":"0","OBJECT_TYPE":"PAYLOAD","MEAN_ELEMENT_THEORY":"SGP4","TLE_LINE2":"2 53836  53.2164 302.7990 0001064  64.6910   4.2682 15.64666931  1308","DECAY_DATE":null,"SITE":"AFETR","REV_AT_EPOCH":"130"},{"PERIOD":"94.998","RCS_SIZE":"MEDIUM","ECCENTRICITY":"0.00017140","PERIAPSIS":"517.299","OBJECT_ID":"2022-114V","APOAPSIS":"519.664","TLE_LINE1":"1 53837U 22114V   22325.91667824 -.01153850  00000-0 -64773-1 0  9996","COUNTRY_CODE":"US","EPOCH":"2022-11-21T22:00:00.999936","MEAN_ANOMALY":"31.8717","FILE":"3666658","GP_ID":"218436483","REF_FRAME":"TEME","TIME_SYSTEM":"UTC","CENTER_NAME":"EARTH","MEAN_MOTION_DOT":"-0.01153850","SEMIMAJOR_AXIS":"6896.616","LAUNCH_DATE":"2022-09-19","OBJECT_NAME":"STARLINK-4776","MEAN_MOTION_DDOT":"0.0000000000000","ARG_OF_PERICENTER":"41.5818","CLASSIFICATION_TYPE":"U","INCLINATION":"53.2170","ELEMENT_SET_NO":"999","NORAD_CAT_ID":"53837","BSTAR":"-0.06477300000000","RA_OF_ASC_NODE":"307.8387","MEAN_MOTION":"15.15823554","EPHEMERIS_TYPE":"0","TLE_LINE2":"2 53837  53.2170 307.8387 0001714  41.5818  31.8717 15.15823554  1302","DECAY_DATE":null,"SITE":"AFETR","REV_AT_EPOCH":"130","OBJECT_TYPE":"PAYLOAD","MEAN_ELEMENT_THEORY":"SGP4"},{"REF_FRAME":"TEME","GP_ID":"218435669","TIME_SYSTEM":"UTC","CENTER_NAME":"EARTH","EPOCH":"2022-11-21T22:00:00.999936","COUNTRY_CODE":"US","MEAN_ANOMALY":"1.0652","FILE":"3666658","PERIAPSIS":"373.358","ECCENTRICITY":"0.00010580","RCS_SIZE":"LARGE","PERIOD":"92.030","APOAPSIS":"374.787","TLE_LINE1":"1 53838U 22114W   22325.91667824 -.01164989  00000-0 -13044-1 0  9997","OBJECT_ID":"2022-114W","RA_OF_ASC_NODE":"302.7976","ELEMENT_SET_NO":"999","BSTAR":"-0.01304400000000","NORAD_CAT_ID":"53838","CLASSIFICATION_TYPE":"U","MEAN_MOTION_DDOT":"0.0000000000000","ARG_OF_PERICENTER":"68.9417","INCLINATION":"53.2165","LAUNCH_DATE":"2022-09-19","MEAN_MOTION_DOT":"-0.01164989","SEMIMAJOR_AXIS":"6752.208","OBJECT_NAME":"STARLINK-4773","EPHEMERIS_TYPE":"0","MEAN_MOTION":"15.64710776","MEAN_ELEMENT_THEORY":"SGP4","OBJECT_TYPE":"PAYLOAD","SITE":"AFETR","DECAY_DATE":null,"REV_AT_EPOCH":"130","TLE_LINE2":"2 53838  53.2165 302.7976 0001058  68.9417   1.0652 15.64710776  1306"},{"RA_OF_ASC_NODE":"302.8009","ELEMENT_SET_NO":"999","NORAD_CAT_ID":"53839","BSTAR":"-0.01321000000000","MEAN_MOTION_DDOT":"0.0000000000000","ARG_OF_PERICENTER":"67.6875","CLASSIFICATION_TYPE":"U","INCLINATION":"53.2163","MEAN_MOTION_DOT":"-0.01175694","SEMIMAJOR_AXIS":"6752.391","LAUNCH_DATE":"2022-09-19","OBJECT_NAME":"STARLINK-4784","REF_FRAME":"TEME","GP_ID":"218435502","TIME_SYSTEM":"UTC","CENTER_NAME":"EARTH","COUNTRY_CODE":"US","MEAN_ANOMALY":"0.2022","EPOCH":"2022-11-21T22:00:00.999936","FILE":"3666658","RCS_SIZE":"LARGE","ECCENTRICITY":"0.00011450","PERIOD":"92.034","PERIAPSIS":"373.483","OBJECT_ID":"2022-114X","APOAPSIS":"375.029","TLE_LINE1":"1 53839U 22114X   22325.91667824 -.01175694  00000-0 -13210-1 0  9998","OBJECT_TYPE":"PAYLOAD","MEAN_ELEMENT_THEORY":"SGP4","DECAY_DATE":null,"SITE":"AFETR","REV_AT_EPOCH":"130","TLE_LINE2":"2 53839  53.2163 302.8009 0001145  67.6875   0.2022 15.64647057  1307","EPHEMERIS_TYPE":"0","MEAN_MOTION":"15.64647057"},{"OBJECT_ID":"2022-114Y","APOAPSIS":"374.583","TLE_LINE1":"1 53840U 22114Y   22325.91667824 -.01126826  00000-0 -12533-1 0  9990","RCS_SIZE":"LARGE","PERIOD":"92.025","ECCENTRICITY":"0.00010940","PERIAPSIS":"373.106","TIME_SYSTEM":"UTC","CENTER_NAME":"EARTH","GP_ID":"218436322","REF_FRAME":"TEME","FILE":"3666658","MEAN_ANOMALY":"1.6629","COUNTRY_CODE":"US","EPOCH":"2022-11-21T22:00:00.999936","INCLINATION":"53.2165","MEAN_MOTION_DDOT":"0.0000000000000","ARG_OF_PERICENTER":"71.5008","CLASSIFICATION_TYPE":"U","OBJECT_NAME":"STARLINK-4766","SEMIMAJOR_AXIS":"6751.979","MEAN_MOTION_DOT":"-0.01126826","LAUNCH_DATE":"2022-09-19","RA_OF_ASC_NODE":"302.7907","NORAD_CAT_ID":"53840","BSTAR":"-0.01253300000000","ELEMENT_SET_NO":"999","EPHEMERIS_TYPE":"0","MEAN_MOTION":"15.64790110","REV_AT_EPOCH":"130","DECAY_DATE":null,"SITE":"AFETR","TLE_LINE2":"2 53840  53.2165 302.7907 0001094  71.5008   1.6629 15.64790110  1309","OBJECT_TYPE":"PAYLOAD","MEAN_ELEMENT_THEORY":"SGP4"}];
